{
"type": "FeatureCollection",
"name": "seminary_road_corridor",
"crs": { "type": "name", "properties": { "name": "urn:ogc:def:crs:OGC:1.3:CRS84" } },
"features": [
{ "type": "Feature", "properties": { "fid": 1, "name": "Seminary Road Corridor Reconstruction", "base_buf": 0.00035, "endcap_buf": 0.0005 }, "geometry": { "type": "Polygon", "coordinates": [ [ [ -77.103950469272633, 38.823638766588424 ], [ -77.103966806582505, 38.823628607396309 ], [ -77.103995662237395, 38.823613183727431 ], [ -77.104025464866311, 38.823599680331945 ], [ -77.104056086849852, 38.823588155033448 ], [ -77.104087397059942, 38.823578657185053 ], [ -77.104119261421488, 38.823571227457997 ], [ -77.104151543486395, 38.823565897667514 ], [ -77.104184105017879, 38.823562690636578 ], [ -77.1042168065825, 38.823561620098197 ], [ -77.10424950814712, 38.823562690636578 ], [ -77.104282069678604, 38.823565897667514 ], [ -77.104314351743511, 38.823571227457997 ], [ -77.104346216105057, 38.823578657185053 ], [ -77.104377526315147, 38.823588155033448 ], [ -77.104408148298688, 38.823599680331945 ], [ -77.104437950927604, 38.823613183727431 ], [ -77.104466806582494, 38.823628607396309 ], [ -77.104494591699009, 38.823645885292045 ], [ -77.10452118729701, 38.823664943428057 ], [ -77.104546479490054, 38.82368570019446 ], [ -77.104570359973096, 38.823708066707603 ], [ -77.104592726486246, 38.823731947190652 ], [ -77.104613483252649, 38.823757239383696 ], [ -77.104632541388654, 38.82378383498169 ], [ -77.10464981928439, 38.823811620098198 ], [ -77.10466524295326, 38.823840475753087 ], [ -77.104678746348753, 38.823870278382017 ], [ -77.104690271647243, 38.823900900365544 ], [ -77.104699769495639, 38.823932210575649 ], [ -77.104707199222702, 38.823964074937194 ], [ -77.104712529013185, 38.823996357002088 ], [ -77.104715736044113, 38.824028918533585 ], [ -77.104716806582502, 38.824061620098199 ], [ -77.104715736044113, 38.824094321662812 ], [ -77.104712529013185, 38.82412688319431 ], [ -77.104707199222702, 38.824159165259204 ], [ -77.104699769495639, 38.824191029620749 ], [ -77.104690271647243, 38.824222339830854 ], [ -77.104678746348753, 38.824252961814381 ], [ -77.10466524295326, 38.824282764443311 ], [ -77.10464981928439, 38.8243116200982 ], [ -77.104632541388654, 38.824339405214708 ], [ -77.104613483252649, 38.824366000812702 ], [ -77.104592726486246, 38.824391293005746 ], [ -77.104570359973096, 38.824415173488795 ], [ -77.104546479490054, 38.824437540001938 ], [ -77.10452118729701, 38.824458296768341 ], [ -77.104494591699009, 38.824477354904353 ], [ -77.104466806582494, 38.824494632800089 ], [ -77.104437950927604, 38.824510056468966 ], [ -77.104408148298688, 38.824523559864453 ], [ -77.104377526315147, 38.82453508516295 ], [ -77.104346216105057, 38.824544583011345 ], [ -77.104314351743511, 38.824552012738401 ], [ -77.104282069678604, 38.824557342528884 ], [ -77.10424950814712, 38.82456054955982 ], [ -77.1042168065825, 38.824561620098201 ], [ -77.104184105017879, 38.82456054955982 ], [ -77.104151543486395, 38.824557342528884 ], [ -77.104119261421488, 38.824552012738401 ], [ -77.104087397059942, 38.824544583011345 ], [ -77.104056086849852, 38.82453508516295 ], [ -77.104025464866311, 38.824523559864453 ], [ -77.103995662237395, 38.824510056468966 ], [ -77.103966806582505, 38.824494632800089 ], [ -77.10393902146599, 38.824477354904353 ], [ -77.103912425867989, 38.824458296768341 ], [ -77.103887133674945, 38.824437540001938 ], [ -77.103863253191903, 38.824415173488795 ], [ -77.103840886678753, 38.824391293005746 ], [ -77.10382012991235, 38.824366000812702 ], [ -77.103801071776346, 38.824339405214708 ], [ -77.10378892473247, 38.824319871179178 ], [ -77.1029654564, 38.824124623199999 ], [ -77.102959646200006, 38.824123193 ], [ -77.102812936600003, 38.824085747300003 ], [ -77.102807768900007, 38.824084386199999 ], [ -77.102622875400002, 38.824034175599998 ], [ -77.102500872, 38.8240011993 ], [ -77.102493327900007, 38.823999069300001 ], [ -77.102245507899994, 38.823926092599997 ], [ -77.102235649199997, 38.823923030800003 ], [ -77.102148443399997, 38.823894530300002 ], [ -77.102144918099995, 38.823893357400003 ], [ -77.101817098300003, 38.8237823547 ], [ -77.1018145651, 38.823781486100003 ], [ -77.101298511400003, 38.823602333099998 ], [ -77.101297207200005, 38.823601782300003 ], [ -77.101295846499994, 38.823601395799997 ], [ -77.100741537600001, 38.823403934700004 ], [ -77.100737182100005, 38.823402350599999 ], [ -77.100301532900005, 38.823240627399997 ], [ -77.100300464300005, 38.823240228700001 ], [ -77.099990306400002, 38.823123939299997 ], [ -77.099981472899998, 38.823120490100003 ], [ -77.099945687100004, 38.823105955199999 ], [ -77.099794936500004, 38.823047446700002 ], [ -77.099793989, 38.823047077399998 ], [ -77.099136061, 38.822789523600001 ], [ -77.098680131799995, 38.822612627799998 ], [ -77.098286269599996, 38.822459568900001 ], [ -77.098284652, 38.822458935599997 ], [ -77.097819683300003, 38.822275582400003 ], [ -77.097264028599994, 38.822063668200002 ], [ -77.097260710900002, 38.822062383599999 ], [ -77.096403443900002, 38.821725420500002 ], [ -77.096402638200004, 38.821725041199997 ], [ -77.096401791100007, 38.821724766 ], [ -77.096238387699998, 38.8216595775 ], [ -77.096230884299999, 38.8216564827 ], [ -77.0960916314, 38.821597149799999 ], [ -77.096087009200005, 38.821595141 ], [ -77.095937362300006, 38.821528817500003 ], [ -77.0959302622, 38.821525575499997 ], [ -77.095735475400005, 38.821433995900001 ], [ -77.095724480200005, 38.821428589500002 ], [ -77.095695573300006, 38.821413741900002 ], [ -77.095695571899995, 38.821413741 ], [ -77.095695569, 38.821413739800001 ], [ -77.095505524800004, 38.821316123400003 ], [ -77.095494064700006, 38.821309965099999 ], [ -77.095289207, 38.8211949234 ], [ -77.095280068, 38.821189608099999 ], [ -77.095089247700002, 38.821074734 ], [ -77.095079216499997, 38.821068461899998 ], [ -77.094893829399993, 38.820948140100001 ], [ -77.094893828699995, 38.8209481397 ], [ -77.094893828099998, 38.8209481393 ], [ -77.094742988700006, 38.8208502405 ], [ -77.0947398056, 38.820848149900002 ], [ -77.094327444800001, 38.820574094199998 ], [ -77.094326407300002, 38.820573302100001 ], [ -77.094325279100005, 38.820572643299997 ], [ -77.094006548699994, 38.820357375 ], [ -77.093996562399994, 38.820350373899998 ], [ -77.093785442200002, 38.820196809199999 ], [ -77.093784416700004, 38.820196060400001 ], [ -77.093576807900007, 38.8200438951 ], [ -77.0935715058, 38.820039447799999 ], [ -77.093565819299997, 38.820035502499998 ], [ -77.092937833600004, 38.819535927700002 ], [ -77.092766080600001, 38.819401537099999 ], [ -77.092759414599996, 38.819396188699997 ], [ -77.092496870800005, 38.819180217700001 ], [ -77.092490180499993, 38.819173937099997 ], [ -77.092483017700005, 38.819168199899998 ], [ -77.091918136199993, 38.818651603900001 ], [ -77.091664884, 38.818434357500003 ], [ -77.0915471717, 38.818354797600001 ], [ -77.091462457199995, 38.8183010594 ], [ -77.0913445021, 38.818234969199999 ], [ -77.091129590099996, 38.8181242502 ], [ -77.090994116399997, 38.818067985100001 ], [ -77.090825641, 38.8180033951 ], [ -77.090685541, 38.817957588600002 ], [ -77.090540557500006, 38.817918270600003 ], [ -77.090536442200005, 38.817917127599998 ], [ -77.090454216099999, 38.817893747900001 ], [ -77.090372945, 38.8178750306 ], [ -77.090253208700005, 38.817850714899997 ], [ -77.090078790600003, 38.817820729499999 ], [ -77.089874895086197, 38.817796899989695 ], [ -77.08985513357861, 38.81781311783984 ], [ -77.089828537980608, 38.817832175975852 ], [ -77.089800752864093, 38.817849453871588 ], [ -77.089771897209204, 38.817864877540465 ], [ -77.089742094580288, 38.817878380935952 ], [ -77.089711472596747, 38.817889906234448 ], [ -77.089680162386657, 38.817899404082844 ], [ -77.089648298025111, 38.8179068338099 ], [ -77.089616015960203, 38.817912163600383 ], [ -77.08958345442872, 38.817915370631319 ], [ -77.089550752864099, 38.8179164411697 ], [ -77.089518051299478, 38.817915370631319 ], [ -77.089485489767995, 38.817912163600383 ], [ -77.089453207703087, 38.8179068338099 ], [ -77.089421343341542, 38.817899404082844 ], [ -77.089390033131451, 38.817889906234448 ], [ -77.08935941114791, 38.817878380935952 ], [ -77.089329608518995, 38.817864877540465 ], [ -77.089300752864105, 38.817849453871588 ], [ -77.08927296774759, 38.817832175975852 ], [ -77.089246372149589, 38.81781311783984 ], [ -77.089221079956545, 38.817792361073437 ], [ -77.089197199473503, 38.817769994560294 ], [ -77.089174832960353, 38.817746114077245 ], [ -77.08915407619395, 38.817720821884201 ], [ -77.089135018057945, 38.817694226286207 ], [ -77.089117740162209, 38.817666441169699 ], [ -77.089102316493339, 38.817637585514809 ], [ -77.089088813097845, 38.817607782885879 ], [ -77.089077287799356, 38.817577160902353 ], [ -77.08906778995096, 38.817545850692248 ], [ -77.089060360223897, 38.817513986330702 ], [ -77.089055030433414, 38.817481704265809 ], [ -77.089051823402485, 38.817449142734311 ], [ -77.089050752864097, 38.817416441169698 ], [ -77.089051823402485, 38.817383739605084 ], [ -77.089055030433414, 38.817351178073586 ], [ -77.089060360223897, 38.817318896008693 ], [ -77.08906778995096, 38.817287031647147 ], [ -77.089077287799356, 38.817255721437043 ], [ -77.089088813097845, 38.817225099453516 ], [ -77.089102316493339, 38.817195296824586 ], [ -77.089117740162209, 38.817166441169697 ], [ -77.089135018057945, 38.817138656053189 ], [ -77.08915407619395, 38.817112060455194 ], [ -77.089174832960353, 38.817086768262151 ], [ -77.089197199473503, 38.817062887779102 ], [ -77.089221079956545, 38.817040521265959 ], [ -77.089246372149589, 38.817019764499555 ], [ -77.08927296774759, 38.817000706363544 ], [ -77.089300752864105, 38.816983428467807 ], [ -77.089329608518995, 38.81696800479893 ], [ -77.08935941114791, 38.816954501403444 ], [ -77.089390033131451, 38.816942976104947 ], [ -77.089421343341542, 38.816933478256551 ], [ -77.089453207703087, 38.816926048529496 ], [ -77.089485489767995, 38.816920718739013 ], [ -77.089518051299478, 38.816917511708077 ], [ -77.089550752864099, 38.816916441169695 ], [ -77.08958345442872, 38.816917511708077 ], [ -77.089616015960203, 38.816920718739013 ], [ -77.089648298025111, 38.816926048529496 ], [ -77.089680162386657, 38.816933478256551 ], [ -77.089711472596747, 38.816942976104947 ], [ -77.089742094580288, 38.816954501403444 ], [ -77.089771897209204, 38.81696800479893 ], [ -77.089800752864093, 38.816983428467807 ], [ -77.089828537980608, 38.817000706363544 ], [ -77.08985513357861, 38.817019764499555 ], [ -77.089880425771653, 38.817040521265959 ], [ -77.089904306254695, 38.817062887779102 ], [ -77.089926672767845, 38.817086768262151 ], [ -77.089937037943983, 38.817099398265817 ], [ -77.090169420099997, 38.817126557100003 ], [ -77.090188092700004, 38.817129251300003 ], [ -77.090377002400004, 38.817161728099997 ], [ -77.090387356299999, 38.817163669 ], [ -77.090516715700005, 38.817189938799999 ], [ -77.090525611900006, 38.817191866199998 ], [ -77.090619960200002, 38.817213595299997 ], [ -77.090637131799994, 38.8172180109 ], [ -77.090725833600004, 38.817243231799999 ], [ -77.090877402100006, 38.8172843356 ], [ -77.090894563099994, 38.817289464300003 ], [ -77.091051512500002, 38.8173407799 ], [ -77.091068034700001, 38.817346643900002 ], [ -77.091249199499998, 38.817416098700001 ], [ -77.091258153699997, 38.817419673800003 ], [ -77.091411352, 38.817483300299997 ], [ -77.091437399599997, 38.817495394300003 ], [ -77.091670532500004, 38.817615500400002 ], [ -77.091675787, 38.817618658500002 ], [ -77.091681320899994, 38.817621299400002 ], [ -77.091812952799998, 38.817695052799998 ], [ -77.091829353500003, 38.817704839400001 ], [ -77.091926430300006, 38.817766419500003 ], [ -77.091934940399995, 38.817771992899999 ], [ -77.092073510399999, 38.817865650199998 ], [ -77.092105400400001, 38.8178899782 ], [ -77.092378118300005, 38.818123922799998 ], [ -77.092386439, 38.818131293100002 ], [ -77.092948653799994, 38.818645450299996 ], [ -77.093200812700005, 38.818852878500003 ], [ -77.093370309, 38.818985503299999 ], [ -77.093372519900001, 38.818987247599999 ], [ -77.093996196899994, 38.819483394599999 ], [ -77.094197715700005, 38.819631096400002 ], [ -77.094403390400004, 38.819780700099997 ], [ -77.094715988199994, 38.819991826500001 ], [ -77.095125675899993, 38.820264105600003 ], [ -77.095274919299996, 38.820360968499998 ], [ -77.095274919900007, 38.820360968899998 ], [ -77.09527492, 38.820360969 ], [ -77.095455345299996, 38.820478070299998 ], [ -77.095636567699998, 38.820587166400003 ], [ -77.095831143, 38.820696433899997 ], [ -77.096015395699993, 38.820791075400003 ], [ -77.096015399899997, 38.820791077499997 ], [ -77.096015400599995, 38.820791077899997 ], [ -77.0960388524, 38.820803123499999 ], [ -77.096224562299994, 38.820890435599999 ], [ -77.096368337200005, 38.820954156600003 ], [ -77.096501537899996, 38.821010910799998 ], [ -77.096660347899999, 38.821074266799997 ], [ -77.097515130299996, 38.8214102532 ], [ -77.0980709719, 38.821622238800003 ], [ -77.098072767, 38.821623061700002 ], [ -77.098074647, 38.821623664199997 ], [ -77.098540633900001, 38.821807418900001 ], [ -77.098933422299993, 38.821960060599999 ], [ -77.099389737600006, 38.822137106100001 ], [ -77.099390217299998, 38.822137329299998 ], [ -77.099390720700001, 38.822137489299998 ], [ -77.100048684100003, 38.8223950569 ], [ -77.100201507099996, 38.822454369799999 ], [ -77.1002039846, 38.822455523099997 ], [ -77.100206578500007, 38.822456383700001 ], [ -77.1002404961, 38.822470159799998 ], [ -77.100545679899994, 38.822584584300003 ], [ -77.100978621799996, 38.822745302500003 ], [ -77.101529422400006, 38.822941513799996 ], [ -77.102042871500004, 38.823119762600001 ], [ -77.102367663500004, 38.823229740099997 ], [ -77.102448196799998, 38.823256059899997 ], [ -77.102687304699998, 38.823326471100003 ], [ -77.102805742900003, 38.823358483699998 ], [ -77.102805939899994, 38.823358551 ], [ -77.102806144200002, 38.823358592399998 ], [ -77.102988641600007, 38.823408152299997 ], [ -77.103129863299998, 38.823444197299999 ], [ -77.103950469272633, 38.823638766588424 ] ] ] } }
]
}
